[Satellite]
VERSION=1.1
NAME=STARLINK-5190
NICKNAME=STARLINK-5190
TLE1=1 54092U 22136AT  22321.58334491  .00070610  00000+0  50376-3 0  9998
TLE2=2 54092  53.2158   9.4484 0004116   7.3603 330.5798 15.73170506  1300
STATUS=0
